ATLAS CENTAUR 2         
1 00694U 63047A   26104.74111714  .00001807  00000+0  21121-3 0  9993
2 00694  30.3544 354.1452 0546721  38.0536 325.7418 14.12239840136727
THOR AGENA D R/B        
1 00733U 64002A   26104.59484984  .00000099  00000+0  52484-4 0  9993
2 00733  99.1199 119.8872 0033425 152.4411 207.8552 14.34038880243449
SL-3 R/B                
1 00877U 64053B   26104.68793934  .00000061  00000+0  36111-4 0  9994
2 00877  65.0770 225.6921 0080876 280.9294  78.2714 14.61393900272050
SL-8 R/B                
1 02802U 67045B   26104.76737778  .00000192  00000+0  60865-4 0  9999
2 02802  74.0096 280.7078 0065171 279.2158  80.1632 14.45649635 94231
SL-8 R/B                
1 03230U 68040B   26104.64400366  .00001899  00000+0  14156-3 0  9994
2 03230  74.0301 240.2071 0023534  49.0884 311.2337 15.03508870 95417
OAO 2                   
1 03597U 68110A   26104.58737823  .00000104  00000+0  33130-4 0  9994
2 03597  34.9937  64.7896 0005121 130.4336 229.6802 14.47327340 24303
ISIS 1                  
1 03669U 69009A   26104.38458091  .00000082  00000+0  49583-4 0  9991
2 03669  88.4470 151.4082 1707472  17.1479 348.0605 11.30422663352560
SERT 2                  
1 04327U 70009A   26104.42178975  .00000006  00000+0  65281-4 0  9999
2 04327  99.2803  45.5694 0005797  75.6929  32.2640 13.58734191784747
SL-3 R/B                
1 05118U 71028B   26104.83283488  .00026567  00000+0  27476-3 0  9994
2 05118  81.2380   7.2853 0016312 146.5860 213.6428 15.64402853994317
ASTEX 1                 
1 05560U 71089A   26104.61905683  .00000215  00000+0  54815-4 0  9996
2 05560  92.7065 163.3671 0014172 330.7750  29.2662 14.50805274867514
SL-8 R/B                
1 05730U 71119B   26104.75882207  .00004847  00000+0  25415-3 0  9998
2 05730  73.8834 108.2625 0545601  67.2515 298.5336 14.38487933660672
OAO 3 (COPERNICUS)      
1 06153U 72065A   26104.38151399  .00000171  00000+0  39459-4 0  9999
2 06153  35.0051  93.9561 0006025  93.5063  53.5682 14.60025497851419
ATLAS CENTAUR R/B       
1 06155U 72065B   26104.29965200  .00000728  00000+0  10213-3 0  9999
2 06155  35.0010  97.0450 0033998 309.1824  50.5859 14.77787344846532
SL-8 R/B                
1 08459U 75112B   26104.81274084  .00000078  00000+0  34315-4 0  9993
2 08459  74.0601 312.4640 0015023  31.6548 328.5506 14.38223086637062
SL-3 R/B                
1 10114U 77057B   26104.83512167  .00007408  00000+0  15099-3 0  9994
2 10114  97.5808 278.3857 0007942 145.9747 214.2012 15.46519473673918
SEASAT 1                
1 10967U 78064A   26104.81113738  .00000133  00000+0  75512-4 0  9993
2 10967 108.0072 201.2872 0002796 267.1146  92.9679 14.46191859511733
SL-14 R/B               
1 11267U 79011B   26104.86468852  .00000394  00000+0  36322-4 0  9990
2 11267  82.5235  62.2356 0014564 299.8342  60.1429 14.91957301534177
