[{"OBJECT_NAME":"ATLAS CENTAUR 2","OBJECT_ID":"1963-047A","EPOCH":"2026-04-14T17:47:12.520896","MEAN_MOTION":14.1223984,"ECCENTRICITY":0.0546721,"INCLINATION":30.3544,"RA_OF_ASC_NODE":354.1452,"ARG_OF_PERICENTER":38.0536,"MEAN_ANOMALY":325.7418,"EPHEMERIS_TYPE":0,"CLASSIFICATION_TYPE":"U","NORAD_CAT_ID":694,"ELEMENT_SET_NO":999,"REV_AT_EPOCH":13672,"BSTAR":0.00021121,"MEAN_MOTION_DOT":1.807e-5,"MEAN_MOTION_DDOT":0},{"OBJECT_NAME":"THOR AGENA D R/B","OBJECT_ID":"1964-002A","EPOCH":"2026-04-14T14:16:35.026176","MEAN_MOTION":14.3403888,"ECCENTRICITY":0.0033425,"INCLINATION":99.1199,"RA_OF_ASC_NODE":119.8872,"ARG_OF_PERICENTER":152.4411,"MEAN_ANOMALY":207.8552,"EPHEMERIS_TYPE":0,"CLASSIFICATION_TYPE":"U","NORAD_CAT_ID":733,"ELEMENT_SET_NO":999,"REV_AT_EPOCH":24344,"BSTAR":5.2484e-5,"MEAN_MOTION_DOT":9.9e-7,"MEAN_MOTION_DDOT":0},{"OBJECT_NAME":"SL-3 R/B","OBJECT_ID":"1964-053B","EPOCH":"2026-04-14T16:30:37.958976","MEAN_MOTION":14.613939,"ECCENTRICITY":0.0080876,"INCLINATION":65.077,"RA_OF_ASC_NODE":225.6921,"ARG_OF_PERICENTER":280.9294,"MEAN_ANOMALY":78.2714,"EPHEMERIS_TYPE":0,"CLASSIFICATION_TYPE":"U","NORAD_CAT_ID":877,"ELEMENT_SET_NO":999,"REV_AT_EPOCH":27205,"BSTAR":3.6111e-5,"MEAN_MOTION_DOT":6.1e-7,"MEAN_MOTION_DDOT":0},{"OBJECT_NAME":"SL-8 R/B","OBJECT_ID":"1967-045B","EPOCH":"2026-04-14T18:25:01.440192","MEAN_MOTION":14.45649635,"ECCENTRICITY":0.0065171,"INCLINATION":74.0096,"RA_OF_ASC_NODE":280.7078,"ARG_OF_PERICENTER":279.2158,"MEAN_ANOMALY":80.1632,"EPHEMERIS_TYPE":0,"CLASSIFICATION_TYPE":"U","NORAD_CAT_ID":2802,"ELEMENT_SET_NO":999,"REV_AT_EPOCH":9423,"BSTAR":6.0865e-5,"MEAN_MOTION_DOT":1.92e-6,"MEAN_MOTION_DDOT":0},{"OBJECT_NAME":"SL-8 R/B","OBJECT_ID":"1968-040B","EPOCH":"2026-04-14T15:27:21.916224","MEAN_MOTION":15.0350887,"ECCENTRICITY":0.0023534,"INCLINATION":74.0301,"RA_OF_ASC_NODE":240.2071,"ARG_OF_PERICENTER":49.0884,"MEAN_ANOMALY":311.2337,"EPHEMERIS_TYPE":0,"CLASSIFICATION_TYPE":"U","NORAD_CAT_ID":3230,"ELEMENT_SET_NO":999,"REV_AT_EPOCH":9541,"BSTAR":0.00014156,"MEAN_MOTION_DOT":1.899e-5,"MEAN_MOTION_DDOT":0},{"OBJECT_NAME":"OAO 2","OBJECT_ID":"1968-110A","EPOCH":"2026-04-14T14:05:49.479072","MEAN_MOTION":14.4732734,"ECCENTRICITY":0.0005121,"INCLINATION":34.9937,"RA_OF_ASC_NODE":64.7896,"ARG_OF_PERICENTER":130.4336,"MEAN_ANOMALY":229.6802,"EPHEMERIS_TYPE":0,"CLASSIFICATION_TYPE":"U","NORAD_CAT_ID":3597,"ELEMENT_SET_NO":999,"REV_AT_EPOCH":2430,"BSTAR":3.313e-5,"MEAN_MOTION_DOT":1.04e-6,"MEAN_MOTION_DDOT":0},{"OBJECT_NAME":"ISIS 1","OBJECT_ID":"1969-009A","EPOCH":"2026-04-14T09:13:47.790624","MEAN_MOTION":11.30422663,"ECCENTRICITY":0.17074722,"INCLINATION":88.447,"RA_OF_ASC_NODE":151.4082,"ARG_OF_PERICENTER":17.1479,"MEAN_ANOMALY":348.0605,"EPHEMERIS_TYPE":0,"CLASSIFICATION_TYPE":"U","NORAD_CAT_ID":3669,"ELEMENT_SET_NO":999,"REV_AT_EPOCH":35256,"BSTAR":4.9583477e-5,"MEAN_MOTION_DOT":8.2e-7,"MEAN_MOTION_DDOT":0},{"OBJECT_NAME":"SERT 2","OBJECT_ID":"1970-009A","EPOCH":"2026-04-14T10:07:22.634400","MEAN_MOTION":13.58734191,"ECCENTRICITY":0.00057978,"INCLINATION":99.2803,"RA_OF_ASC_NODE":45.5694,"ARG_OF_PERICENTER":75.6929,"MEAN_ANOMALY":32.264,"EPHEMERIS_TYPE":0,"CLASSIFICATION_TYPE":"U","NORAD_CAT_ID":4327,"ELEMENT_SET_NO":999,"REV_AT_EPOCH":78474,"BSTAR":6.5280877e-5,"MEAN_MOTION_DOT":6.0e-8,"MEAN_MOTION_DDOT":0},{"OBJECT_NAME":"SL-3 R/B","OBJECT_ID":"1971-028B","EPOCH":"2026-04-14T19:59:16.933632","MEAN_MOTION":15.64402853,"ECCENTRICITY":0.0016312,"INCLINATION":81.238,"RA_OF_ASC_NODE":7.2853,"ARG_OF_PERICENTER":146.586,"MEAN_ANOMALY":213.6428,"EPHEMERIS_TYPE":0,"CLASSIFICATION_TYPE":"U","NORAD_CAT_ID":5118,"ELEMENT_SET_NO":999,"REV_AT_EPOCH":99431,"BSTAR":0.00027476,"MEAN_MOTION_DOT":0.00026567,"MEAN_MOTION_DDOT":0},{"OBJECT_NAME":"ASTEX 1","OBJECT_ID":"1971-089A","EPOCH":"2026-04-14T14:51:26.510112","MEAN_MOTION":14.50805274,"ECCENTRICITY":0.0014172,"INCLINATION":92.7065,"RA_OF_ASC_NODE":163.3671,"ARG_OF_PERICENTER":330.775,"MEAN_ANOMALY":29.2662,"EPHEMERIS_TYPE":0,"CLASSIFICATION_TYPE":"U","NORAD_CAT_ID":5560,"ELEMENT_SET_NO":999,"REV_AT_EPOCH":86751,"BSTAR":5.4815e-5,"MEAN_MOTION_DOT":2.15e-6,"MEAN_MOTION_DDOT":0},{"OBJECT_NAME":"SL-8 R/B","OBJECT_ID":"1971-119B","EPOCH":"2026-04-14T18:12:42.226848","MEAN_MOTION":14.38487933,"ECCENTRICITY":0.0545601,"INCLINATION":73.8834,"RA_OF_ASC_NODE":108.2625,"ARG_OF_PERICENTER":67.2515,"MEAN_ANOMALY":298.5336,"EPHEMERIS_TYPE":0,"CLASSIFICATION_TYPE":"U","NORAD_CAT_ID":5730,"ELEMENT_SET_NO":999,"REV_AT_EPOCH":66067,"BSTAR":0.00025415,"MEAN_MOTION_DOT":4.847e-5,"MEAN_MOTION_DDOT":0},{"OBJECT_NAME":"OAO 3 (COPERNICUS)","OBJECT_ID":"1972-065A","EPOCH":"2026-04-14T09:09:22.808736","MEAN_MOTION":14.60025497,"ECCENTRICITY":0.00060252,"INCLINATION":35.0051,"RA_OF_ASC_NODE":93.9561,"ARG_OF_PERICENTER":93.5063,"MEAN_ANOMALY":53.5682,"EPHEMERIS_TYPE":0,"CLASSIFICATION_TYPE":"U","NORAD_CAT_ID":6153,"ELEMENT_SET_NO":999,"REV_AT_EPOCH":85141,"BSTAR":3.9458876e-5,"MEAN_MOTION_DOT":1.71e-6,"MEAN_MOTION_DDOT":0},{"OBJECT_NAME":"ATLAS CENTAUR R/B","OBJECT_ID":"1972-065B","EPOCH":"2026-04-14T07:11:29.932800","MEAN_MOTION":14.77787344,"ECCENTRICITY":0.0033998,"INCLINATION":35.001,"RA_OF_ASC_NODE":97.045,"ARG_OF_PERICENTER":309.1824,"MEAN_ANOMALY":50.5859,"EPHEMERIS_TYPE":0,"CLASSIFICATION_TYPE":"U","NORAD_CAT_ID":6155,"ELEMENT_SET_NO":999,"REV_AT_EPOCH":84653,"BSTAR":0.00010213,"MEAN_MOTION_DOT":7.28e-6,"MEAN_MOTION_DDOT":0},{"OBJECT_NAME":"SL-8 R/B","OBJECT_ID":"1975-112B","EPOCH":"2026-04-14T19:30:20.808576","MEAN_MOTION":14.38223086,"ECCENTRICITY":0.0015023,"INCLINATION":74.0601,"RA_OF_ASC_NODE":312.464,"ARG_OF_PERICENTER":31.6548,"MEAN_ANOMALY":328.5506,"EPHEMERIS_TYPE":0,"CLASSIFICATION_TYPE":"U","NORAD_CAT_ID":8459,"ELEMENT_SET_NO":999,"REV_AT_EPOCH":63706,"BSTAR":3.4315e-5,"MEAN_MOTION_DOT":7.8e-7,"MEAN_MOTION_DDOT":0},{"OBJECT_NAME":"SL-3 R/B","OBJECT_ID":"1977-057B","EPOCH":"2026-04-14T20:02:34.512288","MEAN_MOTION":15.46519473,"ECCENTRICITY":0.0007942,"INCLINATION":97.5808,"RA_OF_ASC_NODE":278.3857,"ARG_OF_PERICENTER":145.9747,"MEAN_ANOMALY":214.2012,"EPHEMERIS_TYPE":0,"CLASSIFICATION_TYPE":"U","NORAD_CAT_ID":10114,"ELEMENT_SET_NO":999,"REV_AT_EPOCH":67391,"BSTAR":0.00015099,"MEAN_MOTION_DOT":7.408e-5,"MEAN_MOTION_DDOT":0},{"OBJECT_NAME":"SEASAT 1","OBJECT_ID":"1978-064A","EPOCH":"2026-04-14T19:28:02.269632","MEAN_MOTION":14.46191859,"ECCENTRICITY":0.0002796,"INCLINATION":108.0072,"RA_OF_ASC_NODE":201.2872,"ARG_OF_PERICENTER":267.1146,"MEAN_ANOMALY":92.9679,"EPHEMERIS_TYPE":0,"CLASSIFICATION_TYPE":"U","NORAD_CAT_ID":10967,"ELEMENT_SET_NO":999,"REV_AT_EPOCH":51173,"BSTAR":7.5512e-5,"MEAN_MOTION_DOT":1.33e-6,"MEAN_MOTION_DDOT":0},{"OBJECT_NAME":"SL-14 R/B","OBJECT_ID":"1979-011B","EPOCH":"2026-04-14T20:45:09.088128","MEAN_MOTION":14.91957301,"ECCENTRICITY":0.0014564,"INCLINATION":82.5235,"RA_OF_ASC_NODE":62.2356,"ARG_OF_PERICENTER":299.8342,"MEAN_ANOMALY":60.1429,"EPHEMERIS_TYPE":0,"CLASSIFICATION_TYPE":"U","NORAD_CAT_ID":11267,"ELEMENT_SET_NO":999,"REV_AT_EPOCH":53417,"BSTAR":3.6322e-5,"MEAN_MOTION_DOT":3.94e-6,"MEAN_MOTION_DDOT":0}]
